[{"OBJECT_NAME":"OBJECT B","OBJECT_ID":"2024-166B","EPOCH":"2026-03-08T16:09:42.851232","MEAN_MOTION":15.75502359,"ECCENTRICITY":0.0002182,"INCLINATION":96.6921,"RA_OF_ASC_NODE":322.5475,"ARG_OF_PERICENTER":351.2198,"MEAN_ANOMALY":8.9031,"EPHEMERIS_TYPE":0,"CLASSIFICATION_TYPE":"U","NORAD_CAT_ID":61180,"ELEMENT_SET_NO":999,"REV_AT_EPOCH":8491,"BSTAR":0.00025198,"MEAN_MOTION_DOT":0.00038147,"MEAN_MOTION_DDOT":0},{"OBJECT_NAME":"STARLINK-36800","OBJECT_ID":"2026-032A","EPOCH":"2026-03-09T22:44:36.202272","MEAN_MOTION":15.7525945,"ECCENTRICITY":0.00014414,"INCLINATION":97.2851,"RA_OF_ASC_NODE":255.4421,"ARG_OF_PERICENTER":67.7007,"MEAN_ANOMALY":292.4411,"EPHEMERIS_TYPE":0,"CLASSIFICATION_TYPE":"U","NORAD_CAT_ID":67797,"ELEMENT_SET_NO":999,"REV_AT_EPOCH":482,"BSTAR":0.0013395154,"MEAN_MOTION_DOT":0.00205156,"MEAN_MOTION_DDOT":0}]
